{
  "constellation": "oneweb",
  "timestamp": "2025-07-21T05:06:13.717346+00:00",
  "satellite_count": 651,
  "data": [
    {
      "satellite_name": "ONEWEB-0655",
      "catalog_number": 54677,
      "epoch_year": 2025,
      "epoch_day": 201.59904789,
      "first_derivative": -3.5e-07,
      "second_derivative": 0.0,
      "drag_term": -0.00011587,
      "inclination": 87.9278,
      "right_ascension": 310.1426,
      "eccentricity": 0.000228,
      "argument_of_perigee": 104.9262,
      "mean_anomaly": 255.2125,
      "mean_motion": 13.21828566,
      "revolution_number": 12810,
      "line1": "1 54677U 22166AM  25201.59904789 -.00000035  00000+0 -11587-3 0  9991",
      "line2": "2 54677  87.9278 310.1426 0002280 104.9262 255.2125 13.21828566128101",
      "last_updated": "2025-07-21T05:06:13.714821+00:00",
      "constellation": "oneweb"
    },
    {
      "satellite_name": "ONEWEB-0659",
      "catalog_number": 54678,
      "epoch_year": 2025,
      "epoch_day": 201.31361931,
      "first_derivative": 2.8e-07,
      "second_derivative": 0.0,
      "drag_term": 0.0,
      "inclination": 87.9275,
      "right_ascension": 310.2006,
      "eccentricity": 0.0001882,
      "argument_of_perigee": 96.4447,
      "mean_anomaly": 263.6901,
      "mean_motion": 13.21825134,
      "revolution_number": 12768,
      "line1": "1 54678U 22166AN  25201.31361931  .00000028  00000+0  36175-4 0  9999",
      "line2": "2 54678  87.9275 310.2006 0001882  96.4447 263.6901 13.21825134127686",
      "last_updated": "2025-07-21T05:06:13.714823+00:00",
      "constellation": "oneweb"
    },
    {
      "satellite_name": "ONEWEB-0685",
      "catalog_number": 54679,
      "epoch_year": 2025,
      "epoch_day": 201.54229236,
      "first_derivative": 5.1e-07,
      "second_derivative": 0.0,
      "drag_term": 0.0,
      "inclination": 87.9278,
      "right_ascension": 310.1503,
      "eccentricity": 0.0001981,
      "argument_of_perigee": 108.7011,
      "mean_anomaly": 251.4338,
      "mean_motion": 13.21824868,
      "revolution_number": 12760,
      "line1": "1 54679U 22166AP  25201.54229236  .00000051  00000+0  92381-4 0  9993",
      "line2": "2 54679  87.9278 310.1503 0001981 108.7011 251.4338 13.21824868127609",
      "last_updated": "2025-07-21T05:06:13.714825+00:00",
      "constellation": "oneweb"
    },
    {
      "satellite_name": "ONEWEB-0712",
      "catalog_number": 54680,
      "epoch_year": 2025,
      "epoch_day": 201.56127872,
      "first_derivative": 8.9e-07,
      "second_derivative": 0.0,
      "drag_term": 0.0,
      "inclination": 87.9057,
      "right_ascension": 294.8639,
      "eccentricity": 0.0002631,
      "argument_of_perigee": 103.0059,
      "mean_anomaly": 257.1366,
      "mean_motion": 13.16595548,
      "revolution_number": 12842,
      "line1": "1 54680U 22166AQ  25201.56127872  .00000089  00000+0  19895-3 0  9999",
      "line2": "2 54680  87.9057 294.8639 0002631 103.0059 257.1366 13.16595548128426",
      "last_updated": "2025-07-21T05:06:13.714828+00:00",
      "constellation": "oneweb"
    },
    {
      "satellite_name": "ONEWEB-0714",
      "catalog_number": 54681,
      "epoch_year": 2025,
      "epoch_day": 201.85138865,
      "first_derivative": -3.4e-07,
      "second_derivative": 0.0,
      "drag_term": -0.0001143,
      "inclination": 87.9282,
      "right_ascension": 310.0818,
      "eccentricity": 0.0002055,
      "argument_of_perigee": 106.5224,
      "mean_anomaly": 253.6135,
      "mean_motion": 13.21826261,
      "revolution_number": 12823,
      "line1": "1 54681U 22166AR  25201.85138865 -.00000034  00000+0 -11430-3 0  9995",
      "line2": "2 54681  87.9282 310.0818 0002055 106.5224 253.6135 13.21826261128238",
      "last_updated": "2025-07-21T05:06:13.714830+00:00",
      "constellation": "oneweb"
    },
    {
      "satellite_name": "ONEWEB-0532",
      "catalog_number": 55140,
      "epoch_year": 2025,
      "epoch_day": 201.34415141,
      "first_derivative": 6.7e-07,
      "second_derivative": 0.0,
      "drag_term": 0.0,
      "inclination": 87.9045,
      "right_ascension": 71.9116,
      "eccentricity": 0.0001337,
      "argument_of_perigee": 80.1629,
      "mean_anomaly": 279.9653,
      "mean_motion": 13.17649535,
      "revolution_number": 12388,
      "line1": "1 55140U 23004A   25201.34415141  .00000067  00000+0  14066-3 0  9999",
      "line2": "2 55140  87.9045  71.9116 0001337  80.1629 279.9653 13.17649535123882",
      "last_updated": "2025-07-21T05:06:13.714832+00:00",
      "constellation": "oneweb"
    },
    {
      "satellite_name": "ONEWEB-0533",
      "catalog_number": 55141,
      "epoch_year": 2025,
      "epoch_day": 201.82576553,
      "first_derivative": 3.67e-06,
      "second_derivative": 0.0,
      "drag_term": 0.0,
      "inclination": 87.8858,
      "right_ascension": 56.5448,
      "eccentricity": 0.00018,
      "argument_of_perigee": 90.6465,
      "mean_anomaly": 269.4869,
      "mean_motion": 13.1244136,
      "revolution_number": 12459,
      "line1": "1 55141U 23004B   25201.82576553  .00000367  00000+0  98395-3 0  9998",
      "line2": "2 55141  87.8858  56.5448 0001800  90.6465 269.4869 13.12441360124593",
      "last_updated": "2025-07-21T05:06:13.714834+00:00",
      "constellation": "oneweb"
    },
    {
      "satellite_name": "ONEWEB-0541",
      "catalog_number": 55142,
      "epoch_year": 2025,
      "epoch_day": 201.44394455,
      "first_derivative": 5.21e-06,
      "second_derivative": 0.0,
      "drag_term": 0.0,
      "inclination": 87.8818,
      "right_ascension": 87.1715,
      "eccentricity": 0.0001796,
      "argument_of_perigee": 78.2647,
      "mean_anomaly": 281.8683,
      "mean_motion": 13.11415907,
      "revolution_number": 12246,
      "line1": "1 55142U 23004C   25201.44394455  .00000521  00000+0  14346-2 0  9991",
      "line2": "2 55142  87.8818  87.1715 0001796  78.2647 281.8683 13.11415907122468",
      "last_updated": "2025-07-21T05:06:13.714836+00:00",
      "constellation": "oneweb"
    },
    {
      "satellite_name": "ONEWEB-0543",
      "catalog_number": 55143,
      "epoch_year": 2025,
      "epoch_day": 201.81113907,
      "first_derivative": 1.22e-06,
      "second_derivative": 0.0,
      "drag_term": 0.0,
      "inclination": 87.9107,
      "right_ascension": 41.3515,
      "eccentricity": 0.0002116,
      "argument_of_perigee": 90.092,
      "mean_anomaly": 270.0454,
      "mean_motion": 13.18688296,
      "revolution_number": 12602,
      "line1": "1 55143U 23004D   25201.81113907  .00000122  00000+0  27664-3 0  9999",
      "line2": "2 55143  87.9107  41.3515 0002116  90.0920 270.0454 13.18688296126026",
      "last_updated": "2025-07-21T05:06:13.714838+00:00",
      "constellation": "oneweb"
    },
    {
      "satellite_name": "ONEWEB-0544",
      "catalog_number": 55144,
      "epoch_year": 2025,
      "epoch_day": 201.50102171,
      "first_derivative": 9e-07,
      "second_derivative": 0.0,
      "drag_term": 0.0,
      "inclination": 87.9108,
      "right_ascension": 41.4035,
      "eccentricity": 0.0002024,
      "argument_of_perigee": 83.0234,
      "mean_anomaly": 277.1128,
      "mean_motion": 13.18686674,
      "revolution_number": 12598,
      "line1": "1 55144U 23004E   25201.50102171  .00000090  00000+0  19469-3 0  9995",
      "line2": "2 55144  87.9108  41.4035 0002024  83.0234 277.1128 13.18686674125982",
      "last_updated": "2025-07-21T05:06:13.714840+00:00",
      "constellation": "oneweb"
    },
    {
      "satellite_name": "ONEWEB-0560",
      "catalog_number": 55145,
      "epoch_year": 2025,
      "epoch_day": 201.49442153,
      "first_derivative": 4.3e-07,
      "second_derivative": 0.0,
      "drag_term": 0.0,
      "inclination": 87.9114,
      "right_ascension": 41.3793,
      "eccentricity": 0.0002032,
      "argument_of_perigee": 81.0241,
      "mean_anomaly": 279.1121,
      "mean_motion": 13.18687398,
      "revolution_number": 12599,
      "line1": "1 55145U 23004F   25201.49442153  .00000043  00000+0  76500-4 0  9999",
      "line2": "2 55145  87.9114  41.3793 0002032  81.0241 279.1121 13.18687398125995",
      "last_updated": "2025-07-21T05:06:13.714842+00:00",
      "constellation": "oneweb"
    },
    {
      "satellite_name": "ONEWEB-0565",
      "catalog_number": 55146,
      "epoch_year": 2025,
      "epoch_day": 201.4878357,
      "first_derivative": 1.7e-07,
      "second_derivative": 0.0,
      "drag_term": 0.0,
      "inclination": 87.9107,
      "right_ascension": 41.4389,
      "eccentricity": 0.0001665,
      "argument_of_perigee": 69.5097,
      "mean_anomaly": 290.6214,
      "mean_motion": 13.18685837,
      "revolution_number": 12598,
      "line1": "1 55146U 23004G   25201.48783570  .00000017  00000+0  10400-4 0  9998",
      "line2": "2 55146  87.9107  41.4389 0001665  69.5097 290.6214 13.18685837125987",
      "last_updated": "2025-07-21T05:06:13.714844+00:00",
      "constellation": "oneweb"
    },
    {
      "satellite_name": "ONEWEB-0567",
      "catalog_number": 55147,
      "epoch_year": 2025,
      "epoch_day": 201.78474597,
      "first_derivative": 7.5e-07,
      "second_derivative": 0.0,
      "drag_term": 0.0,
      "inclination": 87.9115,
      "right_ascension": 41.3365,
      "eccentricity": 0.0001855,
      "argument_of_perigee": 74.7193,
      "mean_anomaly": 285.4144,
      "mean_motion": 13.18686248,
      "revolution_number": 12602,
      "line1": "1 55147U 23004H   25201.78474597  .00000075  00000+0  15798-3 0  9996",
      "line2": "2 55147  87.9115  41.3365 0001855  74.7193 285.4144 13.18686248126023",
      "last_updated": "2025-07-21T05:06:13.714847+00:00",
      "constellation": "oneweb"
    }
  ]
}